{"type": "FeatureCollection", "features": [ {"type": "Feature", "properties": {"norad_id": 45358, "name": "COSMOS 2545 (760)", "group": "glo-ops", "lat": 61.825539293138725, "lon": 21.74560837733184, "alt_km": 19151.995587378522, "timestamp": "2025-12-21T22:41:41.721333+00:00", "meta": {"OBJECT_NAME": "COSMOS 2545 (760)", "OBJECT_ID": "2020-018A", "EPOCH": "2025-12-20T21:44:12.708096", "MEAN_MOTION": 2.13102664, "ECCENTRICITY": 0.00114269, "INCLINATION": 64.4648, "RA_OF_ASC_NODE": 318.6832, "ARG_OF_PERICENTER": 250.0027, "MEAN_ANOMALY": 109.8672, "EPHEMERIS_TYPE": 0, "CLASSIFICATION_TYPE": "U", "NORAD_CAT_ID": 45358, "ELEMENT_SET_NO": 999, "REV_AT_EPOCH": 4486, "BSTAR": 0, "MEAN_MOTION_DOT": -5e-07, "MEAN_MOTION_DDOT": 0}, "tle": {"line1": "1 45358U 20018A   25354.90570264 -.00000050  00000+0  00000+0 0  9992", "line2": "2 45358  64.4648 318.6832 0011426 250.0027 109.8672  2.13102664 44860"}}, "geometry": {"type": "Point", "coordinates": [21.74560837733184, 61.825539293138725]}}, {"type": "Feature", "properties": {"norad_id": 46805, "name": "COSMOS 2547 (705K)", "group": "glo-ops", "lat": -55.937821218429235, "lon": 153.70191226160716, "alt_km": 19129.761976904825, "timestamp": "2025-12-21T22:41:41.721344+00:00", "meta": {"OBJECT_NAME": "COSMOS 2547 (705K)", "OBJECT_ID": "2020-075A", "EPOCH": "2025-12-21T02:15:10.361952", "MEAN_MOTION": 2.13100243, "ECCENTRICITY": 0.0006113, "INCLINATION": 64.5966, "RA_OF_ASC_NODE": 198.4175, "ARG_OF_PERICENTER": 227.727, "MEAN_ANOMALY": 132.2941, "EPHEMERIS_TYPE": 0, "CLASSIFICATION_TYPE": "U", "NORAD_CAT_ID": 46805, "ELEMENT_SET_NO": 999, "REV_AT_EPOCH": 4011, "BSTAR": 0, "MEAN_MOTION_DOT": 9.8e-07, "MEAN_MOTION_DDOT": 0}, "tle": {"line1": "1 46805U 20075A   25355.09386993  .00000098  00000+0  00000+0 0  9999", "line2": "2 46805  64.5966 198.4175 0006113 227.7270 132.2941  2.13100243 40118"}}, "geometry": {"type": "Point", "coordinates": [153.70191226160716, -55.937821218429235]}}, {"type": "Feature", "properties": {"norad_id": 52984, "name": "COSMOS 2557 (706K)", "group": "glo-ops", "lat": 12.2009185145093, "lon": 134.7648720735391, "alt_km": 19141.686035915536, "timestamp": "2025-12-21T22:41:41.721355+00:00", "meta": {"OBJECT_NAME": "COSMOS 2557 (706K)", "OBJECT_ID": "2022-075A", "EPOCH": "2025-12-21T06:13:04.908576", "MEAN_MOTION": 2.13102077, "ECCENTRICITY": 0.00135381, "INCLINATION": 64.405, "RA_OF_ASC_NODE": 320.7521, "ARG_OF_PERICENTER": 278.2868, "MEAN_ANOMALY": 81.5534, "EPHEMERIS_TYPE": 0, "CLASSIFICATION_TYPE": "U", "NORAD_CAT_ID": 52984, "ELEMENT_SET_NO": 999, "REV_AT_EPOCH": 2692, "BSTAR": 0, "MEAN_MOTION_DOT": -4.9e-07, "MEAN_MOTION_DDOT": 0}, "tle": {"line1": "1 52984U 22075A   25355.25908459 -.00000049  00000+0  00000+0 0  9998", "line2": "2 52984  64.4050 320.7521 0013538 278.2868  81.5534  2.13102077 26928"}}, "geometry": {"type": "Point", "coordinates": [134.7648720735391, 12.2009185145093]}}, {"type": "Feature", "properties": {"norad_id": 54031, "name": "COSMOS 2559 (707K)", "group": "glo-ops", "lat": -47.232211372001906, "lon": -70.43560098810458, "alt_km": 19147.33751290238, "timestamp": "2025-12-21T22:41:41.721366+00:00", "meta": {"OBJECT_NAME": "COSMOS 2559 (707K)", "OBJECT_ID": "2022-130A", "EPOCH": "2025-12-21T01:52:43.812768", "MEAN_MOTION": 2.13101354, "ECCENTRICITY": 0.00115601, "INCLINATION": 64.3775, "RA_OF_ASC_NODE": 320.8478, "ARG_OF_PERICENTER": 191.8523, "MEAN_ANOMALY": 168.1144, "EPHEMERIS_TYPE": 0, "CLASSIFICATION_TYPE": "U", "NORAD_CAT_ID": 54031, "ELEMENT_SET_NO": 999, "REV_AT_EPOCH": 2489, "BSTAR": 0, "MEAN_MOTION_DOT": -5e-07, "MEAN_MOTION_DDOT": 0}, "tle": {"line1": "1 54031U 22130A   25355.07828487 -.00000050  00000+0  00000+0 0  9999", "line2": "2 54031  64.3775 320.8478 0011560 191.8523 168.1144  2.13101354 24899"}}, "geometry": {"type": "Point", "coordinates": [-70.43560098810458, -47.232211372001906]}}, {"type": "Feature", "properties": {"norad_id": 54377, "name": "COSMOS 2564 (761)", "group": "glo-ops", "lat": 54.93448596476709, "lon": -119.0961406587447, "alt_km": 19140.18415377726, "timestamp": "2025-12-21T22:41:41.721377+00:00", "meta": {"OBJECT_NAME": "COSMOS 2564 (761)", "OBJECT_ID": "2022-161A", "EPOCH": "2025-12-20T22:08:20.201856", "MEAN_MOTION": 2.13102061, "ECCENTRICITY": 0.00085464, "INCLINATION": 64.7387, "RA_OF_ASC_NODE": 198.627, "ARG_OF_PERICENTER": 203.7858, "MEAN_ANOMALY": 156.2488, "EPHEMERIS_TYPE": 0, "CLASSIFICATION_TYPE": "U", "NORAD_CAT_ID": 54377, "ELEMENT_SET_NO": 999, "REV_AT_EPOCH": 2383, "BSTAR": 0, "MEAN_MOTION_DOT": 9.9e-07, "MEAN_MOTION_DDOT": 0}, "tle": {"line1": "1 54377U 22161A   25354.92245604  .00000099  00000+0  00000+0 0  9995", "line2": "2 54377  64.7387 198.6270 0008546 203.7858 156.2488  2.13102061 23838"}}, "geometry": {"type": "Point", "coordinates": [-119.0961406587447, 54.93448596476709]}}, {"type": "Feature", "properties": {"norad_id": 57517, "name": "COSMOS 2569 (703K)", "group": "glo-ops", "lat": 47.815544526843155, "lon": 109.23607784279318, "alt_km": 19141.094785425976, "timestamp": "2025-12-21T22:41:41.721388+00:00", "meta": {"OBJECT_NAME": "COSMOS 2569 (703K)", "OBJECT_ID": "2023-114A", "EPOCH": "2025-12-20T11:11:48.591168", "MEAN_MOTION": 2.13103983, "ECCENTRICITY": 0.00107986, "INCLINATION": 65.1981, "RA_OF_ASC_NODE": 78.6524, "ARG_OF_PERICENTER": 287.0398, "MEAN_ANOMALY": 72.8764, "EPHEMERIS_TYPE": 0, "CLASSIFICATION_TYPE": "U", "NORAD_CAT_ID": 57517, "ELEMENT_SET_NO": 999, "REV_AT_EPOCH": 1845, "BSTAR": 0, "MEAN_MOTION_DOT": -1.8e-07, "MEAN_MOTION_DDOT": 0}, "tle": {"line1": "1 57517U 23114A   25354.46653462 -.00000018  00000+0  00000+0 0  9999", "line2": "2 57517  65.1981  78.6524 0010798 287.0398  72.8764  2.13103983 18453"}}, "geometry": {"type": "Point", "coordinates": [109.23607784279318, 47.815544526843155]}}, {"type": "Feature", "properties": {"norad_id": 63130, "name": "COSMOS 2584 (704K)", "group": "glo-ops", "lat": 34.26758816825293, "lon": -119.67432752247817, "alt_km": 19121.636797397194, "timestamp": "2025-12-21T22:41:41.721399+00:00", "meta": {"OBJECT_NAME": "COSMOS 2584 (704K)", "OBJECT_ID": "2025-042A", "EPOCH": "2025-12-21T07:00:00.966240", "MEAN_MOTION": 2.13103074, "ECCENTRICITY": 0.00077364, "INCLINATION": 64.9804, "RA_OF_ASC_NODE": 78.8547, "ARG_OF_PERICENTER": 219.241, "MEAN_ANOMALY": 140.7412, "EPHEMERIS_TYPE": 0, "CLASSIFICATION_TYPE": "U", "NORAD_CAT_ID": 63130, "ELEMENT_SET_NO": 999, "REV_AT_EPOCH": 625, "BSTAR": 0, "MEAN_MOTION_DOT": -1.1e-07, "MEAN_MOTION_DDOT": 0}, "tle": {"line1": "1 63130U 25042A   25355.29167785 -.00000011  00000+0  00000+0 0  9992", "line2": "2 63130  64.9804  78.8547 0007736 219.2410 140.7412  2.13103074  6250"}}, "geometry": {"type": "Point", "coordinates": [-119.67432752247817, 34.26758816825293]}}, {"type": "Feature", "properties": {"norad_id": 65590, "name": "COSMOS 2596 (708K)", "group": "glo-ops", "lat": -62.94498170706524, "lon": -151.3511228815583, "alt_km": 19112.04926810601, "timestamp": "2025-12-21T22:41:41.721410+00:00", "meta": {"OBJECT_NAME": "COSMOS 2596 (708K)", "OBJECT_ID": "2025-206B", "EPOCH": "2025-12-21T08:11:49.978752", "MEAN_MOTION": 2.13100442, "ECCENTRICITY": 0.00140796, "INCLINATION": 64.7397, "RA_OF_ASC_NODE": 321.1762, "ARG_OF_PERICENTER": 307.1691, "MEAN_ANOMALY": 209.4715, "EPHEMERIS_TYPE": 0, "CLASSIFICATION_TYPE": "U", "NORAD_CAT_ID": 65590, "ELEMENT_SET_NO": 999, "REV_AT_EPOCH": 212, "BSTAR": 0, "MEAN_MOTION_DOT": -4.8e-07, "MEAN_MOTION_DDOT": 0}, "tle": {"line1": "1 65590U 25206B   25355.34155068 -.00000048  00000+0  00000+0 0  9993", "line2": "2 65590  64.7397 321.1762 0014079 307.1691 209.4715  2.13100442  2123"}}, "geometry": {"type": "Point", "coordinates": [-151.3511228815583, -62.94498170706524]}}]}